ONEWEB-0560             
1 55145U 23004F   25329.42221361  .00000051  00000+0  96655-4 0  9991
2 55145  87.9192  15.9461 0002018  92.3442 267.7921 13.18684369142852
ONEWEB-0565             
1 55146U 23004G   25329.41561634  .00000044  00000+0  79210-4 0  9991
2 55146  87.9180  15.9950 0001752  81.3598 278.7733 13.18684468142849
ONEWEB-0567             
1 55147U 23004H   25329.40902044 -.00000003  00000+0 -41560-4 0  9999
2 55147  87.9190  15.9619 0001912  85.0131 275.1219 13.18684098142844
ONEWEB-0569             
1 55148U 23004J   25329.38542360  .00000342  00000+0  90233-3 0  9992
2 55148  87.9003   0.7156 0002497  77.2609 282.8799 13.13469695143420
ONEWEB-0570             
1 55149U 23004K   25329.39913019  .00000091  00000+0  19875-3 0  9991
2 55149  87.9189  15.9636 0001331  91.8297 268.2988 13.18687163142837
ONEWEB-0571             
1 55150U 23004L   25329.39253293  .00000107  00000+0  23984-3 0  9998
2 55150  87.9184  15.9652 0002208  62.4276 297.7080 13.18687621142847
ONEWEB-0572             
1 55151U 23004M   25329.47884451  .00000030  00000+0  43239-4 0  9995
2 55151  87.9134  46.3755 0001709  95.5203 264.6124 13.17648032140658
ONEWEB-0573             
1 55152U 23004N   25329.15828750  .00000092  00000+0  19963-3 0  9995
2 55152  87.9179  16.0178 0001544  70.2691 289.8608 13.18684450142809
